{
  "norad_id": 63711,
  "name": "STARLINK-33580",
  "history": [
    {
      "epoch": "2026-03-28T19:37:49.675584Z",
      "apogee_km": 476.0308325278429,
      "perigee_km": 474.38246631328366,
      "latitude_deg": 4.443336214689312e-05,
      "longitude_deg": 10.345421043653523,
      "height_km": 476.1302904043045,
      "semi_major_axis_km": 6853.3436494205625,
      "eccentricity": 0.00012026,
      "inclination_deg": 53.1584,
      "raan_deg": 131.0353,
      "arg_perigee_deg": 91.7835,
      "mean_anomaly_deg": 268.3304,
      "mean_motion_rev_day": 15.3020282
    }
  ]
}