{"fetched_at":"2026-03-30T13:17:50Z","count":15418,"tles":[{"name":"STARLINK-33580","line1":"1 63711U 25087Q   26087.81793606  .00014787  00000+0  51034-3 0  9995","line2":"2 63711  53.1584 131.0353 0001202  91.7835 268.3304 15.30202820 52129","category":"Starlink"}]}